place_id,name,city,country,lat,long
479000735570737,"Vietnam Chamber of Commerce and Industry VCCI HCMC Branch","Ho Chi Minh City",Vietnam,10.7827902,106.6870804
616736635138732,"Vertical Academy","Ho Chi Minh City",Vietnam,10.8089192858,106.733452816
178441095580232,"Trà Sữa Lọ Lem","Binh Thanh",Vietnam,10.8042517,106.6920624
734229800028524,"Con Đức Mẹ Gia Định - TPHCM","Ho Chi Minh City",Vietnam,10.7694,106.682
173700849325842,"Riverside Palace","Ho Chi Minh City",Vietnam,10.7555951338,106.690509209
122965981185901,"Restaurace Formanka Louny","Louny",Czech Republic,50.35735,13.80613
406962065981560,"Đại Học Mở Tp.Hcm - 97 Võ Văn Tần","Ho Chi Minh City",Vietnam,10.7761675817,106.690287831
104652422903798,"HCMC Fine Art Museum-Bảo tàng Mỹ Thuật TpHCM","Ho Chi Minh City",Vietnam,10.7701517757,106.699439204
442177372528700,"Cargo Event Space","Ho Chi Minh City",Vietnam,10.766129429,106.707632019
278711348827134,"Crescent Mall","Ho Chi Minh City",Vietnam,10.7279016731,106.718132038
128758810585914,"Q.12, TP.HCM","",,10.8524386939,106.637990896
361137537382705,"The Saigon Cafe","Buffalo",United States,42.9111786,-78.8774796
106379452730955,"Nhạc Viện TPHCM","Chí Hòa",Vietnam,10.7741499,106.6950989
413116955422920,"Hoa Huong Duong Nguyen Tri Phuong","Ho Chi Minh City",Vietnam,10.7622505825,106.668250386
1411695789133639,"UP Station","Ho Chi Minh City",Vietnam,10.7759981,106.7061081
143962809064655,"Saigon Outcast","Ho Chi Minh City",Vietnam,10.8171473,106.7296753
882869018459713,"Omg Rooftop bar","Ho Chi Minh City",Vietnam,10.7717603457,106.697480147
197197913731478,"Rmit Saigon South Campus","Ho Chi Minh City",Vietnam,10.7295090805,106.693244629
92055404101,"Caravelle Saigon","Ho Chi Minh City",Vietnam,10.7762613,106.7034607
140941392666938,"Peppermill Concert Hall","West Wendover",United States,40.7369822467,-114.051697268
1069832729712052,"Café-Restaurant Ho Chi Minh City","Ho Chi Minh City",Vietnam,10.7694492,106.6978455
850950584931555,"Stones Gambling Hall","Citrus Heights",United States,38.706332,-121.312445
1436892619887339,"The Cube Bar Saigon","Ho Chi Minh City",Vietnam,10.7799344254,106.703047287
112230675455131,"Coronel Suárez","Coronel Suárez",Argentina,-37.4667,-61.9167
129765995630,"Sheraton Saigon Hotel & Towers","Ho Chi Minh City",Vietnam,10.7754838961,106.704047175
930885773601020,"Saigon Street Bali","Bali",Indonesia,-8.7086802,115.1697311
146679858699194,"Axon Active Vietnam","Ho Chi Minh City",Vietnam,10.8092204317,106.664466269
140986189290781,"Caravelle Hotel","Ho Chi Minh City",Vietnam,10.7764060173,106.703231615
211536622247965,"Thông tấn xã TPHCM","Ho Chi Minh City",Vietnam,10.7781484173,106.693017492
1649959118552681,"AndroidDev Saigon","Ho Chi Minh City",Vietnam,10.7699318,106.7057571
125383274205415,"VietClimb","Hanoi",Vietnam,21.0557790774,105.841373104
121404550378,"The Deck, Saigon","Ho Chi Minh City",Vietnam,10.8050785,106.7365646
352671261514692,"Al Fresco's","Ho Chi Minh City",Vietnam,10.8039871966,106.735397453
760474480698633,"Thủ Thiêm Bridge","Ho Chi Minh City",Vietnam,10.7852429126,106.718871457
150643144998194,"Đại học Công nghiệp Thực phẩm TPHCM","Ho Chi Minh City",Vietnam,10.806138,106.6286697
524538074238532,"Ban Truyền Thông Đoàn trường ĐH Bách Khoa Tp.HCM","Ho Chi Minh City",Vietnam,10.7737150449,106.661270857
148316888708402,"Vietnam Human Resources Club - VNHR","Ho Chi Minh City",Vietnam,10.7907801,106.705658
138939216176677,"Tate Center Grand Hall","Athens",United States,33.9507097902,-83.3758149042
251653318220740,"Saigon (Ho Chi Minh City)","",,10.7680481033,106.693813695
144585465710375,"Air Lounge Coffee","Ho Chi Minh City",Vietnam,10.72319156,106.71544461
339679246202032,"SAIGON RANGER","Ho Chi Minh City",Vietnam,10.7776982607,106.704811907
190365210983587,"HCMC","Ho Chi Minh City",Vietnam,10.767565579,106.692597103
272870317608,"Beirut Restaurant","Ho Chi Minh City",Vietnam,10.7781022463,106.703909371
1609541019315274,"208 Nguyen Huu Canh. F22. Quận Bình Thạnh","Ho Chi Minh City",Vietnam,10.7950575504,106.721977629
118131004909879,"U-Tac","Cape Town",South Africa,-33.593796014,18.5258448326
1437374359836898,"Memories Coffee House 186 Doc Lap","Ho Chi Minh City",Vietnam,10.7924435344,106.631911403
220557164642582,"Edward R. Murrow High School","Brooklyn",United States,40.6203918,-73.9592133
430182417008717,"Ốc La Cà -Đồng Đen","Ho Chi Minh City",Vietnam,10.786177063,106.643535848
221666598211,"L'USINE: Fashion, Lifestyle, Cafe, Gallery","Ho Chi Minh City",Vietnam,10.7758460826,106.70316182
691672590865227,"House of Son Tinh","Hanoi",Vietnam,21.0628986,105.829155
1575293096059517,"Chanh Bistro Rooftop Saigon","Ho Chi Minh City",Vietnam,10.7715079668,106.704058487
1508495006062711,"Line Up Bar & Grill","Phan Thiet",Vietnam,10.9547677044,108.230162239
1545729262363418,"Uprising Saigon","Ho Chi Minh City",Vietnam,10.7903566,106.67379
340240609451430,"Saigon Soul Pool Party","Ho Chi Minh City",Vietnam,10.7711897,106.6943283
112367088780789,"Nairn","Nairn",United Kingdom,57.5833,-3.86667
104580643217496,"Thư viện Khoa học Tổng hợp TP.HCM","Ho Chi Minh City",Vietnam,10.7750301,106.69841
230288990428206,"Công Viên Lê Văn Tám","Ho Chi Minh City",Vietnam,10.7877646694,106.693589373
125275087517296,"InterContinental Asiana Saigon","Ho Chi Minh City",Vietnam,10.7808556985,106.700600446
490272757677536,"Trường Cao Đẳng Nghề Kỹ Thuật Công Nghệ TP.HCM","Ho Chi Minh City",Vietnam,10.78834742,106.624858211
415132265208836,"Cafe Tượng","Ho Chi Minh City",Vietnam,10.7756055343,106.664450646
1457253097844155,"Thảm lót sàn Hưng Thịnh 0903424703 TP.HCM","Ho Chi Minh City",Vietnam,10.7850428,106.6506958
388026887917895,"Khu 5 Tang","Vung Tau",Vietnam,10.3609018389,107.084886183
231483033583144,"RMIT University Vietnam","Ho Chi Minh City",Vietnam,10.7294116086,106.695087171
103696243001853,"Monash University, Caulfield campus","Melbourne",Australia,-37.8769241318,145.044248149
202805849768048,"Cinebox 212","",,10.7805499698,106.682568766
139069359454848,"Rex Hotel","Ho Chi Minh City",Vietnam,10.7758333333,106.7015
196657367149385,"Lotte Legend Hotel Saigon","Ho Chi Minh City",Vietnam,10.7787712876,106.706362643
108153009209321,"Vietnam","",,21.0333333333,105.85
1447063515567486,"Saigon Urban Flea Market","Ho Chi Minh City",Vietnam,10.8169383244,106.729935094
108458769184495,"Ho Chi Minh City, Vietnam","Ho Chi Minh City",Vietnam,10.7694,106.682
186086438113504,"Nhà Thi Đấu Phú Thọ","Ho Chi Minh City",Vietnam,10.7686911262,106.657572666
173877619310232,"Saigon Performing Arts Center","Fountain Valley",United States,33.7278709,-117.9548569
142688579261554,"Miss Saigon - Musical","London",United Kingdom,51.5135841211,-0.130647256952
496590227135861,"Tai Cong Ty Nobland 1 Hiep Thanh Q12 Tphcm","Ho Chi Minh City",Vietnam,10.75,106.66667
324716624349762,"Ấp 4 xã Nhơn Đức, huyện Nhà Bè, TP.HCM","Nhà Bè",Vietnam,10.656983853,106.688405911
268387536637911,"HUTECH - Đại học Công nghệ Tp.HCM","Ho Chi Minh City",Vietnam,10.8017767421,106.715066273
666873386674756,"CLB Tình Nguyện HOPE tại Tp.HCM","Ho Chi Minh City",Vietnam,10.80049326,106.66244984
145709058909375,"TP. Hồ Chí Minh","Ho Chi Minh City",Vietnam,10.8410873869,106.599819359
1405440006337216,"Saigon Artbook","Ho Chi Minh City",Vietnam,10.7929997,106.7110663
349129288484457,"HCM City","Ho Chi Minh City",Vietnam,10.7468225675,106.601658634
460947700604260,"Sân Vận Động Thống Nhất (Tp.Hồ Chí Minh)","Ho Chi Minh City",Vietnam,10.760572057,106.662916863
185505541640293,"VISTA WALK","Ho Chi Minh City",Vietnam,10.8058127956,106.751438208
228436337217849,"University of Sciences","Ho Chi Minh City",Vietnam,10.762676151,106.682199813
805961829521606,"Dreamplex","Ho Chi Minh City",Vietnam,10.7829504,106.7047577
254129851296643,"School of Industrial Management - HCMc University of Technology","Ho Chi Minh City",Vietnam,10.7733702925,106.660014981
172926962775927,"BAN LIÊN LẠC SINH VIÊN PHÚ YÊN TẠI TP.HCM","Ho Chi Minh City",Vietnam,10.78269,106.6894608
164954480295648,"DC Mormon Temple","Kensington",United States,39.0160484,-77.0643921
252004458260447,"Sai Gon Skate Park","Ho Chi Minh City",Vietnam,10.820096,106.7260284
186974978020618,"Sân vận động Thống Nhất","Ho Chi Minh City",Vietnam,10.7606674352,106.663131239
558648594148823,"Sheraton Saigon Hotel. 88 Đồng Khởi Quận 1 HCM City","Ho Chi Minh City",Vietnam,10.7753984066,106.704321889
112039852155607,"TPHCM","Ho Chi Minh City",Vietnam,10.7694444444,106.681944444
207460492654316,"White Palace Convention Center","Ho Chi Minh City",Vietnam,10.7997398,106.6744995
152568304931268,"Whisky Saigon","Boston",United States,42.3523102,-71.065712
576604065803262,"Lucy's Dream Art Studio HCMC","Ho Chi Minh City",Vietnam,10.75,106.66667
452984798116548,"Aviation Heritage Museum of Western Australia","Perth",Australia,-32.0493,115.8587
514367848684483,"TPHCM","Ho Chi Minh City",Vietnam,10.8081194001,106.702867081
187275621329532,"Sofitel Saigon Plaza","Ho Chi Minh City",Vietnam,10.7844439,106.7025299
331029323703377,"Công Viên Tao Đàn","Ho Chi Minh City",Vietnam,10.7759670315,106.694091106
750225778350527,"Quận Bình Tân TP.HCM","Ho Chi Minh City",Vietnam,10.74969865,106.5854794
437734699582012,"Vietnam News Agency (TTXVN) Rep. Office in HCMC","Ho Chi Minh City",Vietnam,10.7782421,106.6935425
1562513684030712,"Le Méridien Saigon","Ho Chi Minh City",Vietnam,10.779788,106.7075272
169430696452177,"Hennepin County Medical Center","Minneapolis",United States,44.9719042621,-93.2617865862
182697855086912,"Stadium Theatre Performing Arts Centre","Woonsocket",United States,42.0053007886,-71.5119871919
378440862233004,"Rạp Đống Đa","Ho Chi Minh City",Vietnam,10.75354,106.6741791
1385792164976565,"Fatal music club","Prague",Czech Republic,50.0859574097,14.4556187419
337423376273783,"NTĐ Tân Bình","Ho Chi Minh City",Vietnam,10.7946298504,106.653640894
280474978690664,"Buu Diên Thành Phô Ho Chí Minh / Hcmc Central Post Office","Ho Chi Minh City",Vietnam,10.7797093029,106.699810542
433753466679157,"Stag - Strathmore Theatrical Arts Group","Melbourne",Australia,-37.7343230049,144.919515628
136363746430809,"Lotte Mart, Dist. 7, HCMC","Ho Chi Minh City, Vietnam",,10.7409343249,106.701379294
111792892269259,"Crna kuća","Novi Sad",Serbia,45.25835145,19.839890015
901626703235679,"City Garden","Bình Thanh (1)",Vietnam,10.7917004,106.7138824
167527659968760,"Stockton Boulevard Partnership","Sacramento",United States,38.5248108,-121.4423294
120674494614559,"St Andrews Episcopal Church","Beacon",United States,41.5070496,-73.9777985
115058285199350,"Memphis Paintball Park","Lakeland",United States,35.2238948266,-89.7421949862
113456572301,"LIN Center for Community Development","Ho Chi Minh City",Vietnam,10.7942303457,106.719037356
131730263540768,"Chieftain Hotel","Inverness",United Kingdom,57.4820002476,-4.20977895961
190849994275218,"Hội Quán Âm Nhạc LẠC CẦM","Westminster",United States,33.7441216,-117.9678192
884672811553550,"Giant Step Urban Art Gallery","Ho Chi Minh City",Vietnam,10.779788,106.7075272
544156325612502,"Nhà Thờ Đức Bà - Sài Gòn","Ho Chi Minh City",Vietnam,10.7794923339,106.699295785
861852637225054,"Suzanne Vian Saigon Yoga","Ho Chi Minh City",Vietnam,10.80534,106.73616
479634595447822,"Saigon, Vietnam","Siem Reap",Cambodia,13.3514805,103.8549669
433752176723033,"Đại học Ngân hàng TP.HCM","Ho Chi Minh City",Vietnam,10.7703032035,106.704185381
